STARLINK-30807          
1 58192U 23167T   26068.22503525  .00033565  00000+0  12233-2 0  9994
2 58192  42.9957 146.0518 0001111 266.8176  93.2548 15.27589562130913
ION SCV-017             
1 63230U 25052W   26068.71648816  .00006457  00000+0  24539-3 0  9998
2 63230  97.4016 324.7516 0023746  44.9875 315.3282 15.26881798 54851
